sat22037
1 22037U 92042D   20046.76297866  .00000001  00000-0 -51683-4 0  9993
2 22037  82.5851 272.4413 0007846 156.0368 271.6005 12.63246938272109
